C/2017 K5 (PANSTARRS),h,03/26.8420/2020,82.2330,102.3714,172.0181,1.006046,7.681079,2000,5.0,4.0
# From MPC114599
C/2017 K6 (Jacques),e,57.2412,85.0076,303.7525,1096,0.0000272,0.99817829,0.0000,01/03.5626/2018,2000,g 11.0,4.0
# From MPC110083
C/2017 M3 (PANSTARRS),e,77.5726,7.0261,110.3166,166.7489,0.0004577,0.97208145,0.0000,04/28.1364/2017,2000,g 10.5,4.0
# From MPC118093
C/2017 M4 (ATLAS),h,01/17.9415/2019,105.6488,65.8927,167.6078,1.001309,3.253404,2000,6.0,4.0
# From MPC118841
C/2017 M5 (TOTAS),h,06/04.3776/2018,15.8738,216.2858,92.7875,1.005489,5.996258,2000,6.5,4.0
# From MPC114599
C/2017 O1 (ASASSN),e,39.9309,25.7436,20.8367,359.3606,0.0001447,0.99584500,0.0000,10/15.0919/2017,2000,g 11.0,4.0
# From MPC114599
P/2017 P1 (PANSTARRS),e,7.6945,221.3939,122.3891,7.899922,0.0443884,0.31092833,48.8206,06/24.0/2021,2000,g 10.0,4.0
# From MPC114599
C/2017 P2 (PANSTARRS),e,50.0502,165.4683,132.4110,2326,0.0000088,0.99893895,0.0000,12/06.5658/2017,2000,g 10.0,4.0
# From MPC114599
P/2017 R1 (PANSTARRS),e,2.5743,143.6164,178.6368,4.135062,0.1172144,0.19569554,179.9565,06/24.0/2021,2000,g 13.5,4.0
# From MPC108595
C/2017 S2 (PANSTARRS),e,12.6747,62.3790,305.9976,20.57314,0.0105622,0.82445767,14.7230,06/24.0/2021,2000,g 13.0,4.0
# From MPC114599
C/2017 S3 (PANSTARRS),h,08/16.1384/2018,99.1788,171.2593,255.8305,1.000060,0.207560,2000,11.0,4.0
# From MPC114599
P/2017 S5 (ATLAS),e,11.8524,252.3674,99.8911,3.167581,0.1748286,0.31434652,249.2512,06/24.0/2021,2000,g 14.0,4.0
# From MPC109591
C/2017 S6 (Catalina),h,02/26.2831/2018,152.8674,131.0425,134.8507,1.000685,1.545924,2000,12.5,4.0
# From MPC114599
C/2017 S7 (Lemmon),e,124.2270,262.7670,187.5513,29752,0.0000002,0.99974434,0.0000,05/24.6353/2017,2000,g  7.0,4.0
# From MPC114599
P/2017 S8 (PANSTARRS),e,29.8306,191.5722,254.7621,2.780724,0.2125530,0.39164163,264.5423,06/24.0/2021,2000,g 16.0,4.0
# From MPC107050
P/2017 S9 (PANSTARRS),e,14.1439,146.2231,237.7010,3.153617,0.1759911,0.30527368,251.9924,06/24.0/2021,2000,g 17.0,4.0
# From MPC114600
C/2017 T1 (Heinze),e,96.8536,102.3643,96.9633,15233,0.0000005,0.99996168,0.0000,02/21.0323/2018,2000,g 14.5,4.0
# From MPC119996
C/2017 T2 (PANSTARRS),e,57.2255,64.3770,93.0024,2525,0.0000078,0.99936020,0.0000,05/04.9130/2020,2000,g  5.0,4.0
# From MPC114600
C/2017 T3 (ATLAS),e,88.1056,230.1148,246.8295,1187,0.0000241,0.99930475,0.0000,07/18.8581/2018,2000,g 10.0,4.0
# From MPC115882
P/2017 TW13 (Lemmon),e,44.8502,322.2982,119.9681,7.141721,0.0516416,0.70953759,56.7585,06/24.0/2021,2000,g 15.0,2.0
# From MPC114600
C/2017 U2 (Fuls),e,95.3870,149.7068,147.8155,3007,0.0000060,0.99776900,0.0000,08/28.1906/2017,2000,g  9.0,4.0
# From MPC114600
P/2017 U3 (PANSTARRS),e,15.9176,165.1089,296.7600,4.929111,0.0900640,0.09890608,72.0998,06/24.0/2021,2000,g 11.0,4.0
# From MPC114600
C/2017 U4 (PANSTARRS),h,09/23.0966/2018,158.2132,245.9385,159.0148,1.001861,7.720676,2000,7.0,4.0
# From MPC114600
C/2017 U5 (PANSTARRS),e,18.9762,163.0854,262.0121,16.87742,0.0142149,0.74407994,18.2442,06/24.0/2021,2000,g 12.0,4.0
# From MPC118841
C/2017 U7,h,09/14.1761/2019,142.5910,276.2448,326.3199,1.000471,6.423546,2000,8.3,2.0
# From MPC114600
C/2017 W2 (Leonard),e,98.1990,312.8414,169.0027,13.64967,0.0195443,0.71056418,26.0120,06/24.0/2021,2000,g 11.0,4.0
# From MPC114601
P/2017 W3 (Gibbs),e,18.1671,210.2713,327.8325,7.841599,0.0448846,0.50720265,54.3689,06/24.0/2021,2000,g 10.5,4.0
# From MPC115883
C/2017 X1 (PANSTARRS),e,31.3075,251.1312,283.2755,31.26493,0.0056379,0.85065048,6.2298,06/24.0/2021,2000,g 10.0,4.0
# From MPC117069
C/2017 Y1 (PANSTARRS),e,55.2657,307.5284,134.2865,1774,0.0000132,0.99790941,0.0000,08/31.2174/2017,2000,g 11.5,4.0
# From MPC118841
C/2017 Y2 (PANSTARRS),h,11/04.7771/2020,128.4118,65.9943,147.8968,1.000803,4.632356,2000,15.0,4.0
# From MPC111770
P/2017 Y3 (Leonard),e,27.5581,153.8437,67.6087,9.842934,0.0319166,0.86999032,39.2446,06/24.0/2021,2000,g 16.5,4.0
# From MPC114601
C/2018 A1 (PANSTARRS),e,53.6125,336.6578,96.2414,25.09691,0.0078392,0.90385492,10.5234,06/24.0/2021,2000,g 12.5,4.0
# From MPC119996
C/2018 A3 (ATLAS),e,139.5395,194.2935,86.3785,444.4033,0.0001052,0.99262937,0.0000,01/12.4172/2019,2000,g  8.5,4.0
# From MPC114601
C/2018 A4 (PANSTARRS),e,3.1485,97.6234,356.0150,12.19557,0.0231420,0.80335858,26.2080,06/24.0/2021,2000,g 14.0,4.0
# From MPC109147
P/2018 A5 (PANSTARRS),e,23.5840,87.8181,359.5437,5.633731,0.0737072,0.52239711,100.9781,06/24.0/2021,2000,g 15.0,4.0
# From MPC119996
C/2018 A6 (Gibbs),e,77.0273,340.3766,264.5249,15.25594,0.0165404,0.80210666,11.7632,06/24.0/2021,2000,g  9.0,4.0
# From MPC118841
C/2018 B1 (Lemmon),h,03/29.1840/2018,162.4201,133.1907,68.3180,1.000422,5.117923,2000,9.0,4.0
# From MPC114601
P/2018 C1 (Lemmon-Read),e,5.1182,270.3720,235.7054,5.654336,0.0733047,0.53269251,89.0445,06/24.0/2021,2000,g 13.5,4.0
# From MPC114601
C/2018 C2 (Lemmon),h,06/01.4826/2018,34.4604,91.1582,134.1081,1.000610,1.959022,2000,13.0,4.0
# From MPEC 2020-AA5
C/2018 DO4 (Lemmon),e,160.4663,251.2626,176.1680,25.67328,0.0075767,0.90610035,5.1213,06/24.0/2021,2000,g 11.0,4.0
# From MPC114602
C/2018 E1 (ATLAS),e,72.5165,146.8675,299.3712,53.90873,0.0024901,0.94990973,2.8975,06/24.0/2021,2000,g 10.5,4.0
# From MPC114602
C/2018 E2 (Barros),e,97.6926,67.1893,277.4600,3999,0.0000039,0.99901981,0.0000,12/24.0304/2017,2000,g 10.5,4.0
# From MPC114602
C/2018 EN4 (NEOWISE),e,81.7046,136.1378,35.0211,18.18225,0.0127125,0.92013384,14.1558,06/24.0/2021,2000,g 15.0,4.0
# From MPC114602
C/2018 EF9 (Lemmon),e,84.6293,172.5605,72.6201,527.5831,0.0000813,0.99704655,0.0000,05/22.5833/2018,2000,g 18.0,2.0
# From MPC115883
C/2018 F1 (Grauer),e,46.0778,177.2758,71.6279,275.0642,0.0002160,0.98911266,0.0000,12/13.5430/2018,2000,g 11.5,4.0
# From MPC110084
C/2018 F3 (Johnson),p,08/15.2314/2017,105.5348,293.0113,2.483172,173.0311,2000,13.0,4.0
# From MPC119996
C/2018 F4 (PANSTARRS),h,12/04.1030/2019,78.0899,26.5147,263.2325,1.001124,3.440688,2000,11.9,2.0
# From MPC114602
P/2018 H2 (PANSTARRS),e,7.3890,68.3649,119.9529,4.391070,0.1071146,0.54027166,133.7550,06/24.0/2021,2000,g 16.6,2.0
# From MPC114602
C/2018 K1 (Weiland),e,164.1951,260.0622,325.1180,30.02878,0.0059896,0.93730391,7.0325,06/24.0/2021,2000,g 14.9,4.0
# From MPC118094
C/2018 KJ3 (Lemmon),e,136.7059,91.6079,217.6778,882.5192,0.0000376,0.99588734,0.0000,09/09.7859/2019,2000,g 12.2,2.0
# From MPC114602
P/2018 L1 (PANSTARRS),e,10.5906,268.6320,18.0007,3.651371,0.1412603,0.48271673,134.8226,06/24.0/2021,2000,g 15.0,4.0
# From MPC118841
C/2018 L2 (ATLAS),e,67.3668,243.0224,56.2834,261.0581,0.0002337,0.99343750,0.0000,12/02.6844/2018,2000,g 10.0,4.0
# From MPC114603
P/2018 L4 (PANSTARRS),e,26.6254,145.1523,140.5856,4.941694,0.0897202,0.66001863,94.9412,06/24.0/2021,2000,g 17.5,4.0
# From MPC119996
P/2018 L5 (Leonard),e,2.2081,219.1081,93.8424,3.628066,0.1426236,0.36473397,163.4108,06/24.0/2021,2000,g 14.5,4.0
# From MPC117070
C/2018 M1 (Catalina),e,37.2980,339.4113,14.1757,21.38409,0.0099671,0.93908895,10.7602,06/24.0/2021,2000,g 15.5,4.0
# From MPC112393
C/2018 N1 (NEOWISE),e,159.4417,292.4538,354.6503,359.7089,0.0001445,0.99635687,0.0000,08/02.0104/2018,2000,g 15.5,4.0
# From MPC119996
C/2018 N2 (ASASSN),h,11/10.9901/2019,77.5314,25.2360,24.4108,1.000165,3.124976,2000,6.0,4.0
# From MPC114603
C/2018 O1 (ATLAS),e,154.0349,87.6644,162.6129,27.95880,0.0066669,0.94417540,6.8491,06/24.0/2021,2000,g 17.0,4.0
# From MPC114603
P/2018 P3 (PANSTARRS),e,8.9098,59.1756,305.8875,3.005881,0.1891239,0.41664862,186.8509,06/24.0/2021,2000,g 14.5,4.0
# From MPC114603
P/2018 P4 (PANSTARRS),e,23.1082,353.0684,8.2550,6.674178,0.0571620,0.45053591,54.8080,06/24.0/2021,2000,g 12.0,4.0
# From MPC118094
C/2018 P5 (PANSTARRS),e,7.2515,216.2354,131.7651,12.80883,0.0215001,0.64255263,18.2256,06/24.0/2021,2000,g 11.0,4.0
# From MPC118841
C/2018 R3 (Lemmon),e,69.7297,324.6420,112.8120,1615,0.0000152,0.99920241,0.0000,06/07.2821/2019,2000,g  9.5,4.0
# From MPC112393
C/2018 R4 (Fuls),e,11.6826,298.4457,345.2985,333.8702,0.0001616,0.99486192,0.0000,03/03.5551/2018,2000,g 14.0,4.0
# From MPC114603
C/2018 R5 (Lemmon),e,103.7484,171.1221,178.0683,22.79124,0.0090584,0.84097925,8.1162,06/24.0/2021,2000,g 11.5,4.0
# From MPC119996
C/2018 U1 (Lemmon),h,11/02.9656/2021,108.2964,75.4809,180.4530,1.001323,4.992849,2000,5.0,4.0
# From MPC114604
C/2018 V1 (Machholz-Fujikawa-Iwamoto),h,12/03.1746/2018,144.0548,128.8831,88.8611,1.000336,0.386770,2000,12.0,4.0
# From MPC115884
C/2018 V2 (ATLAS),e,159.1679,357.0860,318.9455,25.08730,0.0078437,0.90122709,7.3799,06/24.0/2021,2000,g 15.0,4.0
# From MPC114604
P/2018 VN2 (Leonard),e,18.2509,226.4995,138.7555,4.064494,0.1202802,0.47861635,134.0026,06/24.0/2021,2000,g 15.0,4.0
# From MPC117070
A/2018 V3,e,164.9780,308.6567,3.5375,122.8627,0.0007237,0.98908673,0.0000,09/08.6969/2019,2000,g 15.7,2.0
# From MPC114604
C/2018 V4 (Africano),e,69.0046,78.3548,359.9342,204.7618,0.0003364,0.98438883,0.0000,03/01.3852/2019,2000,g 12.5,4.0
# From MPC114604
P/2018 V5 (Trujillo-Sheppard),e,10.5866,171.2874,260.6794,8.954237,0.0367842,0.47473574,36.6080,06/24.0/2021,2000,g 12.5,4.0
# From MPC115884
C/2018 W1 (Catalina),e,83.2809,233.6006,251.2446,21.69424,0.0097541,0.93728067,7.5528,06/24.0/2021,2000,g 15.7,2.0
# From MPC119996
C/2018 W2 (Africano),h,09/05.5930/2019,116.6190,181.8406,157.9796,1.000395,1.455589,2000,9.5,4.0
# From MPC119996
C/2018 X2 (Fitzsimmons),e,23.0693,340.8299,162.0427,145.5725,0.0005612,0.98539330,0.0000,07/08.3385/2019,2000,g 12.0,4.0
# From MPC114604
C/2018 X3 (PANSTARRS),e,43.3743,78.8964,359.7444,12.37340,0.0226449,0.78215864,20.5260,06/24.0/2021,2000,g 14.5,4.0
# From MPC118842
C/2018 Y1 (Iwamoto),e,160.3989,147.5139,358.0059,139.1599,0.0006004,0.99076920,0.0000,02/06.9414/2019,2000,g 11.5,4.0
# From MPC114605
P/2018 Y2 (Africano),e,11.6825,297.2618,162.3233,7.459781,0.0483743,0.47862318,43.7509,06/24.0/2021,2000,g 11.5,4.0
# From MPC114605
P/2019 A1 (PANSTARRS),e,13.7443,312.3021,150.7668,5.121638,0.0850336,0.56834969,83.9629,06/24.0/2021,2000,g 16.0,4.0
# From MPC114605
